[{"OBJECT_NAME":"VIZARD-METEO (RS38S)","OBJECT_ID":"2023-091Z","EPOCH":"2026-03-09T23:01:09.168960","MEAN_MOTION":15.32764799,"ECCENTRICITY":0.00087615,"INCLINATION":97.5192,"RA_OF_ASC_NODE":136.6522,"ARG_OF_PERICENTER":71.7666,"MEAN_ANOMALY":288.4529,"EPHEMERIS_TYPE":0,"CLASSIFICATION_TYPE":"U","NORAD_CAT_ID":57189,"ELEMENT_SET_NO":999,"REV_AT_EPOCH":14947,"BSTAR":0.00066106249,"MEAN_MOTION_DOT":0.00020895,"MEAN_MOTION_DDOT":0},{"OBJECT_NAME":"STARLINK-34822","OBJECT_ID":"2025-167J","EPOCH":"2026-03-09T03:50:45.727008","MEAN_MOTION":15.30285074,"ECCENTRICITY":0.00015366,"INCLINATION":53.1617,"RA_OF_ASC_NODE":29.4811,"ARG_OF_PERICENTER":83.8991,"MEAN_ANOMALY":276.2184,"EPHEMERIS_TYPE":0,"CLASSIFICATION_TYPE":"U","NORAD_CAT_ID":65086,"ELEMENT_SET_NO":999,"REV_AT_EPOCH":3339,"BSTAR":0.0023197424,"MEAN_MOTION_DOT":0.00069169,"MEAN_MOTION_DDOT":0}]
